CZ-2D R/B               
1 28738U 05024B   26065.50209063  .00048365  00000+0  60164-3 0  9998
2 28738  97.3594  80.5319 0006361  54.9703 305.2150 15.59799074139282
ALOS (DAICHI)           
1 28931U 06002A   26065.37138894  .00002078  00000+0  35633-3 0  9992
2 28931  98.1215  21.3435 0001050  54.5080 305.6224 14.69797725 72993
H-2A R/B                
1 28932U 06002B   26065.37576354  .00010753  00000+0  53957-3 0  9998
2 28932  98.2405 212.1147 0051951 252.4113 107.1439 15.16330644 93933
RESURS-DK 1             
1 29228U 06021A   26065.49374220  .00003685  00000+0  21594-3 0  9997
2 29228  69.9310 245.2906 0002256 164.5852 195.5383 15.12716018 87042
CZ-4B R/B               
1 29507U 06046C   26065.37685659  .00005641  00000+0  28649-3 0  9994
2 29507  97.5596 110.2943 0031622 279.4208  80.3451 15.16863265 59549
CZ-2C R/B               
1 31114U 07010B   26065.55563291  .00000183  00000+0  10353-3 0  9999
2 31114  98.3978 178.9916 0057964 303.9044  55.6629 14.20244882979273
COSMO-SKYMED 1          
1 31598U 07023A   26065.65563858  .00004696  00000+0  41847-3 0  9994
2 31598  97.8863 256.6635 0000944  98.9581 261.1747 14.96505895 14453
COSMOS 2428             
1 31792U 07029A   26065.34894384  .00000069  00000+0  62482-4 0  9992
2 31792  70.9426 210.3548 0008955 280.4526  79.5585 14.12945279963628
SL-16 R/B               
1 31793U 07029B   26065.58446465 -.00000064  00000+0 -81584-5 0  9994
2 31793  70.9757 178.9115 0002354 276.9720  94.3261 14.14833351964938
KORONAS-FOTON           
1 33504U 09003A   26065.06844838  .00012362  00000+0  27699-3 0  9996
2 33504  82.4277 279.6435 0010985 161.8849 198.2792 15.43221790945182
CZ-2C R/B               
1 37731U 11030B   26065.66049002  .00002628  00000+0  33646-3 0  9994
2 37731  97.8547  22.9844 0052732   1.9306 170.6641 14.81208627789648
H-2A R/B                
1 38341U 12025E   26065.38243127  .00005442  00000+0  49292-3 0  9991
2 38341  98.4730  32.1636 0043569 325.4468  34.3920 14.95132437747729
SHIJIAN-16 (SJ-16)      
1 39358U 13057A   26065.61227054  .00001109  00000+0  11114-3 0  9991
2 39358  74.9734 190.9130 0015648 120.5896 239.6839 14.92323265671047
SL-4 R/B                
1 39679U 14021B   26065.51232791  .00018729  00000+0  41192-3 0  9997
2 39679  51.6093 352.7772 0097822  91.4081 269.8112 15.39057855655782
ALOS-2                  
1 39766U 14029A   26065.60776277  .00002237  00000+0  30622-3 0  9997
2 39766  97.9198 164.2495 0001407  97.6429 262.4943 14.79488481636410
YAOGAN-29               
1 41038U 15069A   26065.62328539  .00000668  00000+0  88855-4 0  9991
2 41038  98.0141  94.0441 0002078  41.2473 318.8897 14.82991158555424
