[{"OBJECT_NAME":"CZ-2D R/B","OBJECT_ID":"2005-024B","EPOCH":"2026-03-06T12:03:00.630432","MEAN_MOTION":15.59799074,"ECCENTRICITY":0.00063612,"INCLINATION":97.3594,"RA_OF_ASC_NODE":80.5319,"ARG_OF_PERICENTER":54.9703,"MEAN_ANOMALY":305.215,"EPHEMERIS_TYPE":0,"CLASSIFICATION_TYPE":"U","NORAD_CAT_ID":28738,"ELEMENT_SET_NO":999,"REV_AT_EPOCH":13928,"BSTAR":0.00060164106,"MEAN_MOTION_DOT":0.00048365,"MEAN_MOTION_DDOT":0},{"OBJECT_NAME":"ALOS (DAICHI)","OBJECT_ID":"2006-002A","EPOCH":"2026-03-06T08:54:48.004416","MEAN_MOTION":14.69797725,"ECCENTRICITY":0.00010505,"INCLINATION":98.1215,"RA_OF_ASC_NODE":21.3435,"ARG_OF_PERICENTER":54.508,"MEAN_ANOMALY":305.6224,"EPHEMERIS_TYPE":0,"CLASSIFICATION_TYPE":"U","NORAD_CAT_ID":28931,"ELEMENT_SET_NO":999,"REV_AT_EPOCH":7299,"BSTAR":0.00035632574,"MEAN_MOTION_DOT":2.078e-5,"MEAN_MOTION_DDOT":0},{"OBJECT_NAME":"H-2A R/B","OBJECT_ID":"2006-002B","EPOCH":"2026-03-06T09:01:05.969856","MEAN_MOTION":15.16330644,"ECCENTRICITY":0.00519517,"INCLINATION":98.2405,"RA_OF_ASC_NODE":212.1147,"ARG_OF_PERICENTER":252.4113,"MEAN_ANOMALY":107.1439,"EPHEMERIS_TYPE":0,"CLASSIFICATION_TYPE":"U","NORAD_CAT_ID":28932,"ELEMENT_SET_NO":999,"REV_AT_EPOCH":9393,"BSTAR":0.00053957015,"MEAN_MOTION_DOT":0.00010753,"MEAN_MOTION_DDOT":0},{"OBJECT_NAME":"RESURS-DK 1","OBJECT_ID":"2006-021A","EPOCH":"2026-03-06T11:50:59.326080","MEAN_MOTION":15.12716018,"ECCENTRICITY":0.00022569,"INCLINATION":69.931,"RA_OF_ASC_NODE":245.2906,"ARG_OF_PERICENTER":164.5852,"MEAN_ANOMALY":195.5383,"EPHEMERIS_TYPE":0,"CLASSIFICATION_TYPE":"U","NORAD_CAT_ID":29228,"ELEMENT_SET_NO":999,"REV_AT_EPOCH":8704,"BSTAR":0.00021594061,"MEAN_MOTION_DOT":3.685e-5,"MEAN_MOTION_DDOT":0},{"OBJECT_NAME":"CZ-4B R/B","OBJECT_ID":"2006-046C","EPOCH":"2026-03-06T09:02:40.409376","MEAN_MOTION":15.16863265,"ECCENTRICITY":0.00316226,"INCLINATION":97.5596,"RA_OF_ASC_NODE":110.2943,"ARG_OF_PERICENTER":279.4208,"MEAN_ANOMALY":80.3451,"EPHEMERIS_TYPE":0,"CLASSIFICATION_TYPE":"U","NORAD_CAT_ID":29507,"ELEMENT_SET_NO":999,"REV_AT_EPOCH":5954,"BSTAR":0.00028649136,"MEAN_MOTION_DOT":5.641e-5,"MEAN_MOTION_DDOT":0},{"OBJECT_NAME":"CZ-2C R/B","OBJECT_ID":"2007-010B","EPOCH":"2026-03-06T13:20:06.683424","MEAN_MOTION":14.20244882,"ECCENTRICITY":0.00579646,"INCLINATION":98.3978,"RA_OF_ASC_NODE":178.9916,"ARG_OF_PERICENTER":303.9044,"MEAN_ANOMALY":55.6629,"EPHEMERIS_TYPE":0,"CLASSIFICATION_TYPE":"U","NORAD_CAT_ID":31114,"ELEMENT_SET_NO":999,"REV_AT_EPOCH":97927,"BSTAR":0.0001035321,"MEAN_MOTION_DOT":1.83e-6,"MEAN_MOTION_DDOT":0},{"OBJECT_NAME":"COSMO-SKYMED 1","OBJECT_ID":"2007-023A","EPOCH":"2026-03-06T15:44:07.173312","MEAN_MOTION":14.96505895,"ECCENTRICITY":9.443e-5,"INCLINATION":97.8863,"RA_OF_ASC_NODE":256.6635,"ARG_OF_PERICENTER":98.9581,"MEAN_ANOMALY":261.1747,"EPHEMERIS_TYPE":0,"CLASSIFICATION_TYPE":"U","NORAD_CAT_ID":31598,"ELEMENT_SET_NO":999,"REV_AT_EPOCH":1445,"BSTAR":0.00041846871,"MEAN_MOTION_DOT":4.696e-5,"MEAN_MOTION_DDOT":0},{"OBJECT_NAME":"COSMOS 2428","OBJECT_ID":"2007-029A","EPOCH":"2026-03-06T08:22:28.747776","MEAN_MOTION":14.12945279,"ECCENTRICITY":0.00089559,"INCLINATION":70.9426,"RA_OF_ASC_NODE":210.3548,"ARG_OF_PERICENTER":280.4526,"MEAN_ANOMALY":79.5585,"EPHEMERIS_TYPE":0,"CLASSIFICATION_TYPE":"U","NORAD_CAT_ID":31792,"ELEMENT_SET_NO":999,"REV_AT_EPOCH":96362,"BSTAR":6.2481977e-5,"MEAN_MOTION_DOT":6.9e-7,"MEAN_MOTION_DDOT":0},{"OBJECT_NAME":"SL-16 R/B","OBJECT_ID":"2007-029B","EPOCH":"2026-03-06T14:01:37.745760","MEAN_MOTION":14.14833351,"ECCENTRICITY":0.0002354,"INCLINATION":70.9757,"RA_OF_ASC_NODE":178.9115,"ARG_OF_PERICENTER":276.972,"MEAN_ANOMALY":94.3261,"EPHEMERIS_TYPE":0,"CLASSIFICATION_TYPE":"U","NORAD_CAT_ID":31793,"ELEMENT_SET_NO":999,"REV_AT_EPOCH":96493,"BSTAR":-8.158417e-6,"MEAN_MOTION_DOT":-6.4e-7,"MEAN_MOTION_DDOT":0},{"OBJECT_NAME":"KORONAS-FOTON","OBJECT_ID":"2009-003A","EPOCH":"2026-03-06T01:38:33.940032","MEAN_MOTION":15.4322179,"ECCENTRICITY":0.00109851,"INCLINATION":82.4277,"RA_OF_ASC_NODE":279.6435,"ARG_OF_PERICENTER":161.8849,"MEAN_ANOMALY":198.2792,"EPHEMERIS_TYPE":0,"CLASSIFICATION_TYPE":"U","NORAD_CAT_ID":33504,"ELEMENT_SET_NO":999,"REV_AT_EPOCH":94518,"BSTAR":0.00027699329,"MEAN_MOTION_DOT":0.00012362,"MEAN_MOTION_DDOT":0},{"OBJECT_NAME":"CZ-2C R/B","OBJECT_ID":"2011-030B","EPOCH":"2026-03-06T15:51:06.337728","MEAN_MOTION":14.81208627,"ECCENTRICITY":0.00527326,"INCLINATION":97.8547,"RA_OF_ASC_NODE":22.9844,"ARG_OF_PERICENTER":1.9306,"MEAN_ANOMALY":170.6641,"EPHEMERIS_TYPE":0,"CLASSIFICATION_TYPE":"U","NORAD_CAT_ID":37731,"ELEMENT_SET_NO":999,"REV_AT_EPOCH":78964,"BSTAR":0.00033646052,"MEAN_MOTION_DOT":2.628e-5,"MEAN_MOTION_DDOT":0},{"OBJECT_NAME":"H-2A R/B","OBJECT_ID":"2012-025E","EPOCH":"2026-03-06T09:10:42.061728","MEAN_MOTION":14.95132437,"ECCENTRICITY":0.00435697,"INCLINATION":98.473,"RA_OF_ASC_NODE":32.1636,"ARG_OF_PERICENTER":325.4468,"MEAN_ANOMALY":34.392,"EPHEMERIS_TYPE":0,"CLASSIFICATION_TYPE":"U","NORAD_CAT_ID":38341,"ELEMENT_SET_NO":999,"REV_AT_EPOCH":74772,"BSTAR":0.00049292343,"MEAN_MOTION_DOT":5.442e-5,"MEAN_MOTION_DDOT":0},{"OBJECT_NAME":"SHIJIAN-16 (SJ-16)","OBJECT_ID":"2013-057A","EPOCH":"2026-03-06T14:41:40.174656","MEAN_MOTION":14.92323265,"ECCENTRICITY":0.00156483,"INCLINATION":74.9734,"RA_OF_ASC_NODE":190.913,"ARG_OF_PERICENTER":120.5896,"MEAN_ANOMALY":239.6839,"EPHEMERIS_TYPE":0,"CLASSIFICATION_TYPE":"U","NORAD_CAT_ID":39358,"ELEMENT_SET_NO":999,"REV_AT_EPOCH":67104,"BSTAR":0.00011114135,"MEAN_MOTION_DOT":1.109e-5,"MEAN_MOTION_DDOT":0},{"OBJECT_NAME":"SL-4 R/B","OBJECT_ID":"2014-021B","EPOCH":"2026-03-06T12:17:45.131424","MEAN_MOTION":15.39057855,"ECCENTRICITY":0.00978225,"INCLINATION":51.6093,"RA_OF_ASC_NODE":352.7772,"ARG_OF_PERICENTER":91.4081,"MEAN_ANOMALY":269.8112,"EPHEMERIS_TYPE":0,"CLASSIFICATION_TYPE":"U","NORAD_CAT_ID":39679,"ELEMENT_SET_NO":999,"REV_AT_EPOCH":65578,"BSTAR":0.0004119201,"MEAN_MOTION_DOT":0.00018729,"MEAN_MOTION_DDOT":0},{"OBJECT_NAME":"ALOS-2","OBJECT_ID":"2014-029A","EPOCH":"2026-03-06T14:35:10.703328","MEAN_MOTION":14.79488481,"ECCENTRICITY":0.00014073,"INCLINATION":97.9198,"RA_OF_ASC_NODE":164.2495,"ARG_OF_PERICENTER":97.6429,"MEAN_ANOMALY":262.4943,"EPHEMERIS_TYPE":0,"CLASSIFICATION_TYPE":"U","NORAD_CAT_ID":39766,"ELEMENT_SET_NO":999,"REV_AT_EPOCH":63641,"BSTAR":0.00030622386,"MEAN_MOTION_DOT":2.237e-5,"MEAN_MOTION_DDOT":0},{"OBJECT_NAME":"YAOGAN-29","OBJECT_ID":"2015-069A","EPOCH":"2026-03-06T14:57:31.857696","MEAN_MOTION":14.82991158,"ECCENTRICITY":0.00020782,"INCLINATION":98.0141,"RA_OF_ASC_NODE":94.0441,"ARG_OF_PERICENTER":41.2473,"MEAN_ANOMALY":318.8897,"EPHEMERIS_TYPE":0,"CLASSIFICATION_TYPE":"U","NORAD_CAT_ID":41038,"ELEMENT_SET_NO":999,"REV_AT_EPOCH":55542,"BSTAR":8.8854532e-5,"MEAN_MOTION_DOT":6.68e-6,"MEAN_MOTION_DDOT":0}]
